H1 CPF 01  gfz 2021 01 10 13  5102 tandemx   
H2 1003001  6202 36605    2021 01 10 12 59 42 2021 01 15 00 00 42   120 1 1  0 0 0
H9
10 0 59225  26622.000000  0    -622903.236   1176894.415   6747615.295
10 0 59225  26742.000000  0     239615.075    863566.505   6818968.760
10 0 59225  26862.000000  0    1092207.012    520162.591   6770505.817
10 0 59225  26982.000000  0    1919525.804    152981.311   6603071.794
10 0 59225  27102.000000  0    2706775.814   -230999.457   6319589.054
10 0 59225  27222.000000  0    3439977.809   -624254.246   5925010.383
10 0 59225  27342.000000  0    4106220.071  -1018855.713   5426237.372
10 0 59225  27462.000000  0    4693890.081  -1406633.147   4832005.468
10 0 59225  27582.000000  0    5192883.244  -1779340.070   4152737.022
10 0 59225  27702.000000  0    5594785.618  -2128827.511   3400362.939
10 0 59225  27822.000000  0    5893024.814  -2447220.555   2588114.232
10 0 59225  27942.000000  0    6082984.724  -2727093.028   1730287.874
10 0 59225  28062.000000  0    6162082.914  -2961635.769    841991.797
10 0 59225  28182.000000  0    6129807.735  -3144815.312    -61128.504
10 0 59225  28302.000000  0    5987712.730  -3271517.621   -963173.733
10 0 59225  28422.000000  0    5739369.462  -3337673.711  -1848280.792
10 0 59225  28542.000000  0    5390278.235  -3340362.941  -2700909.412
10 0 59225  28662.000000  0    4947742.800  -3277892.992  -3506120.375
10 0 59225  28782.000000  0    4420710.380  -3149854.244  -4249839.765
10 0 59225  28902.000000  0    3819582.404  -2957148.151  -4919104.066
10 0 59225  29022.000000  0    3155999.999  -2701987.787  -5502281.029
10 0 59225  29142.000000  0    2442612.156  -2387872.575  -5989262.090
10 0 59225  29262.000000  0    1692832.243  -2019539.448  -6371627.327
10 0 59225  29382.000000  0     920584.528  -1602888.975  -6642781.701
10 0 59225  29502.000000  0     140046.579  -1144888.551  -6798057.592
10 0 59225  29622.000000  0    -634606.724   -653456.345  -6834785.879
10 0 59225  29742.000000  0   -1389454.355   -137326.926  -6752336.266
10 0 59225  29862.000000  0   -2111073.717    394100.390  -6552126.605
10 0 59225  29982.000000  0   -2786773.569    930928.085  -6237600.437
10 0 59225  30102.000000  0   -3404812.664   1462939.747  -5814174.558
10 0 59225  30222.000000  0   -3954602.934   1979789.841  -5289156.502
10 0 59225  30342.000000  0   -4426894.392   2471201.930  -4671630.322
10 0 59225  30462.000000  0   -4813936.419   2927172.034  -3972309.776
10 0 59225  30582.000000  0   -5109611.984   3338171.385  -3203362.140
10 0 59225  30702.000000  0   -5309543.571   3695346.518  -2378204.809
10 0 59225  30822.000000  0   -5411166.022   3990711.493  -1511274.845
10 0 59225  30942.000000  0   -5413765.169   4217326.660   -617776.527
10 0 59225  31062.000000  0   -5318479.724   4369459.740    286589.184
10 0 59225  31182.000000  0   -5128265.796   4442725.208   1185908.153
10 0 59225  31302.000000  0   -4847823.030   4434195.806   2064342.764
10 0 59225  31422.000000  0   -4483485.495   4342484.660   2906419.730
10 0 59225  31542.000000  0   -4043079.977   4167796.908   3697310.351
10 0 59225  31662.000000  0   -3535755.734   3911947.978   4423097.490
10 0 59225  31782.000000  0   -2971790.867   3578348.983   5071023.478
10 0 59225  31902.000000  0   -2362379.058   3171959.680   5629714.850
10 0 59225  32022.000000  0   -1719402.270   2699210.802   6089379.355
10 0 59225  32142.000000  0   -1055194.450   2167897.379   6441972.612
10 0 59225  32262.000000  0    -382302.591   1587045.525   6681331.092
10 0 59225  32382.000000  0     286749.684    966756.769   6803274.229
10 0 59225  32502.000000  0     939695.173    318031.024   6805672.773
10 0 59225  32622.000000  0    1564746.890   -347427.890   6688483.391
10 0 59225  32742.000000  0    2150810.012  -1017422.755   6453750.232
10 0 59225  32862.000000  0    2687678.679  -1679485.851   6105571.796
10 0 59225  32982.000000  0    3166215.742  -2321110.693   5650034.831
10 0 59225  33102.000000  0    3578511.399  -2929989.414   5095113.203
10 0 59225  33222.000000  0    3918017.976  -3494251.018   4450534.477
10 0 59225  33342.000000  0    4179658.604  -4002696.599   3727614.170
10 0 59225  33462.000000  0    4359907.061  -4445026.482   2939059.816
10 0 59225  33582.000000  0    4456837.153  -4812054.032   2098747.644
10 0 59225  33702.000000  0    4470139.732  -5095900.237   1221474.902
10 0 59225  33822.000000  0    4401106.095  -5290164.509    322693.296
10 0 59225  33942.000000  0    4252578.239  -5390066.544   -581770.543
10 0 59225  34062.000000  0    4028869.136  -5392557.417  -1476002.038
10 0 59225  34182.000000  0    3735651.837  -5296395.065  -2344288.093
10 0 59225  34302.000000  0    3379822.356  -5102182.692  -3171399.770
10 0 59225  34422.000000  0    2969339.956  -4812369.710  -3942863.986
10 0 59225  34542.000000  0    2513048.392  -4431216.449  -4645217.390
10 0 59225  34662.000000  0    2020483.532  -3964723.154  -5266238.260
10 0 59225  34782.000000  0    1501673.258  -3420525.689  -5795151.093
10 0 59225  34902.000000  0     966933.895  -2807763.509  -6222803.227
10 0 59225  35022.000000  0     426666.208  -2136921.324  -6541812.809
10 0 59225  35142.000000  0    -108844.559  -1419646.457  -6746685.324
10 0 59225  35262.000000  0    -629619.979   -668546.373  -6833898.109
10 0 59225  35382.000000  0   -1126169.058    103029.920  -6801953.845
10 0 59225  35502.000000  0   -1589657.142    881223.433  -6651402.633
10 0 59225  35622.000000  0   -2012059.381   1651907.631  -6384833.406
10 0 59225  35742.000000  0   -2386296.579   2400938.338  -6006834.259
10 0 59225  35862.000000  0   -2706353.556   3114408.406  -5523923.016
10 0 59225  35982.000000  0   -2967376.754   3778904.101  -4944445.964
10 0 59225  36102.000000  0   -3165750.816   4381758.838  -4278445.468
10 0 59225  36222.000000  0   -3299151.050   4911298.904  -3537495.297
10 0 59225  36342.000000  0   -3366569.544   5357074.540  -2734507.117
10 0 59225  36462.000000  0   -3368316.235   5710073.427  -1883512.457
10 0 59225  36582.000000  0   -3305993.804   5962912.434   -999419.635
10 0 59225  36702.000000  0   -3182444.507   6109999.468    -97749.854
10 0 59225  36822.000000  0   -3001673.275   6147661.491    805639.390
10 0 59225  36942.000000  0   -2768746.510   6074236.995   1694842.899
10 0 59225  37062.000000  0   -2489666.031   5890125.281   2554198.899
10 0 59225  37182.000000  0   -2171224.915   5597792.644   3368573.378
10 0 59225  37302.000000  0   -1820849.702   5201737.659   4123632.501
10 0 59225  37422.000000  0   -1446432.327   4708416.422   4806098.849
10 0 59225  37542.000000  0   -1056154.962   4126129.532   5403986.464
10 0 59225  37662.000000  0    -658312.699   3464873.504   5906809.291
10 0 59225  37782.000000  0    -261139.521   2736160.798   6305761.030
10 0 59225  37902.000000  0     127360.416   1952812.613   6593863.107
10 0 59225  38022.000000  0     499572.355   1128729.485   6766081.202
10 0 59225  38142.000000  0     848418.968    278641.738   6819407.528
10 0 59225  38262.000000  0    1167493.637   -582153.096   6752909.578
10 0 59225  38382.000000  0    1451177.466  -1438064.977   6567746.620
10 0 59225  38502.000000  0    1694738.431  -2273493.192   6267150.896
10 0 59225  38622.000000  0    1894410.830  -3073111.219   5856375.419
10 0 59225  38742.000000  0    2047453.934  -3822150.271   5342607.207
10 0 59225  38862.000000  0    2152188.534  -4506675.438   4734846.502
10 0 59225  38982.000000  0    2208011.551  -5113849.705   4043755.080
10 0 59225  39102.000000  0    2215389.092  -5632183.292   3281473.538
10 0 59225  39222.000000  0    2175824.672  -6051760.135   2461408.540
10 0 59225  39342.000000  0    2091805.166  -6364435.654   1597995.140
10 0 59225  39462.000000  0    1966726.873  -6564001.280    706439.054
10 0 59225  39582.000000  0    1804801.190  -6646313.548   -197556.915
10 0 59225  39702.000000  0    1610943.475  -6609383.791  -1098078.521
10 0 59225  39822.000000  0    1390645.454  -6453420.874  -1979291.603
10 0 59225  39942.000000  0    1149836.282  -6180829.653  -2825727.565
10 0 59225  40062.000000  0     894737.351  -5796164.719  -3622560.809
10 0 59225  40182.000000  0     631714.862  -5306042.620  -4355869.808
10 0 59225  40302.000000  0     367131.329  -4719015.476  -5012878.521
10 0 59225  40422.000000  0     107201.166  -4045409.724  -5582172.942
10 0 59225  40542.000000  0    -142146.592  -3297134.142  -6053890.990
10 0 59225  40662.000000  0    -375395.592  -2487461.591  -6419882.422
10 0 59225  40782.000000  0    -587557.194  -1630789.651  -6673838.075
10 0 59225  40902.000000  0    -774271.392   -742384.931  -6811387.871
10 0 59225  41022.000000  0    -931891.860    161885.801  -6830168.390
10 0 59225  41142.000000  0   -1057554.217   1065833.111  -6729857.720
10 0 59225  41262.000000  0   -1149226.742   1953226.984  -6512180.210
10 0 59225  41382.000000  0   -1205742.620   2808080.625  -6180879.960
10 0 59225  41502.000000  0   -1226813.534   3614933.358  -5741665.067
10 0 59225  41622.000000  0   -1213024.506   4359128.510  -5202119.003
10 0 59225  41742.000000  0   -1165809.534   5027081.203  -4571581.518
10 0 59225  41862.000000  0   -1087408.966   5606532.430  -3860997.758
10 0 59225  41982.000000  0    -980808.422   6086782.468  -3082736.846
10 0 59225  42102.000000  0    -849660.421   6458898.837  -2250383.537
10 0 59225  42222.000000  0    -698190.153   6715895.149  -1378504.449
10 0 59225  42342.000000  0    -531087.810   6852873.834   -482392.559
10 0 59225  42462.000000  0    -353388.943   6867130.412    422204.516
10 0 59225  42582.000000  0    -170346.234   6758215.153   1319368.731
10 0 59225  42702.000000  0      12703.333   6527947.862   2193302.099
10 0 59225  42822.000000  0     190472.466   6180385.053   3028613.577
10 0 59225  42942.000000  0     357855.678   5721743.691   3810596.336
10 0 59225  43062.000000  0     510056.848   5160285.117   4525491.619
99
